satname,norad_id,inclination_deg,eccentricity,mean_motion_rev_per_day,perigee_km,apogee_km,l1,l2
STARLINK-1325,45554,53.06,0.0003845,15.51172976,410.68887413250286,415.91148932525266,1 45554U 20025Z   25283.91670139  .00204533  00000+0  33605-2 0  9993,2 45554  53.0600 352.2957 0003845  39.2269 357.9453 15.51172976  5862
STARLINK-1327,45555,53.0557,0.0001283,15.06390513,546.352108429006,548.1291603299878,1 45555U 20025AA  25283.65956647 -.00002762  00000+0 -16663-3 0  9994,2 45555  53.0557  40.1271 0001283  90.6830 269.4306 15.06390513302756
STARLINK-1336,45557,53.0373,0.0002582,15.9981538,273.2126763595734,276.6483204157412,1 45557U 20025AC  25283.91670139  .00395487  77579-4  76664-3 0  9998,2 45557  53.0373 342.5939 0002582  36.4650 322.9853 15.99815380  6013
STARLINK-1356,45564,53.0448,0.0004142,15.06412042,544.3061871025775,550.0431152744231,1 45564U 20025AK  25283.33151972  .00001835  00000+0  14203-3 0  9993,2 45564  53.0448  41.5994 0004142  89.5476 270.5988 15.06412042302708
STARLINK-1357,45565,53.0651,0.0005222,15.2893434,475.4159134996453,482.57750394503546,1 45565U 20025AL  25283.69048811  .00074218  00000+0  25911-2 0  9992,2 45565  53.0651  28.5272 0005222 229.8782 130.1759 15.28934340302923
STARLINK-1361,45567,53.0555,0.0001375,15.06392483,546.282357961908,548.1868351509602,1 45567U 20025AN  25283.74803390 -.00001269  00000+0 -66301-4 0  9999,2 45567  53.0555  39.7297 0001375  92.4294 267.6852 15.06392483302771
STARLINK-1363,45568,53.0544,0.0001532,15.06396573,546.1610962114328,548.2830262277903,1 45568U 20025AP  25283.63012829 -.00000490  00000+0 -14010-4 0  9992,2 45568  53.0544  40.5016 0001532  92.0165 268.0999 15.06396573302745
STARLINK-1366,45569,53.055,0.0001957,15.10039371,534.7267060926315,537.4329305553229,1 45569U 20025AQ  25283.91670139  .00021769  00000+0  13370-2 0  9994,2 45569  53.0550  38.9573 0001957  89.2917  94.7814 15.10039371  5741
STARLINK-1376,45570,53.0571,0.000103,15.06395142,546.513134613565,547.9397594836564,1 45570U 20025AR  25283.67800493 -.00000757  00000+0 -31959-4 0  9998,2 45570  53.0571  40.0448 0001030  94.8956 265.2151 15.06395142302754
STARLINK-1320,45572,53.0608,0.0008317,15.39250229,442.6476362911835,454.002773522825,1 45572U 20025AT  25283.57350341  .00071468  00000+0  17998-2 0  9991,2 45572  53.0608 348.9272 0008317 285.6529  74.3557 15.39250229303485
STARLINK-1321,45573,53.0547,0.0001599,15.0638688,546.1443994763158,548.3591388046871,1 45573U 20025AU  25283.66418047 -.00003088  00000+0 -18857-3 0  9991,2 45573  53.0547  30.1055 0001599 112.2516 247.8643 15.06386880302594
STARLINK-1328,45576,53.0544,0.0007766,15.61208844,378.91252396346954,389.41573007395436,1 45576U 20025AX  25283.91670139  .00097146  00000+0  11178-2 0  9998,2 45576  53.0544  13.7978 0007766 315.4196 219.1722 15.61208844  5930
STARLINK-1331,45578,53.0575,0.0001447,15.0639821,546.21494530573,548.2191427660755,1 45578U 20025AZ  25283.70841584 -.00003101  00000+0 -18936-3 0  9991,2 45578  53.0575  29.9051 0001447 103.3550 256.7601 15.06398210302912
STARLINK-1333,45580,53.0546,0.0001156,15.06397231,546.4194732631195,548.0206158118172,1 45580U 20025BB  25283.71486128 -.00000299  00000+0 -11639-5 0  9994,2 45580  53.0546  39.8788 0001156  96.5893 263.5228 15.06397231302766
STARLINK-1335,45581,53.0552,0.0001499,15.06391802,546.1985702263037,548.2747972566895,1 45581U 20025BC  25283.71947200 -.00000703  00000+0 -28319-4 0  9990,2 45581  53.0552  29.8605 0001499  97.0024 263.1136 15.06391802302901
STARLINK-1337,45582,53.056,0.0001367,15.06397981,546.2710498956367,548.1644418831629,1 45582U 20025BD  25283.80793777  .00000883  00000+0  78148-4 0  9991,2 45582  53.0560  29.4631 0001367  87.2671 272.8474 15.06397981302916
STARLINK-1347,45586,53.0575,0.0005164,15.2816991,477.74105690992565,484.8254661560359,1 45586U 20025BH  25283.67691199  .00056368  00000+0  20223-2 0  9993,2 45586  53.0575  18.9695 0005164 243.3134 116.7336 15.28169910303048
STARLINK-1360,45588,53.0463,0.0006048,15.70523958,353.32486834651627,361.47217211178577,1 45588U 20025BK  25283.48473743  .00080598  00000+0  64102-3 0  9994,2 45588  53.0463 305.0689 0006048  40.9570 319.1900 15.70523958304079
STARLINK-1364,45589,53.056,0.0001585,15.06393953,546.1324205003948,548.3277618682987,1 45589U 20025BL  25283.67892949  .00000890  00000+0  78642-4 0  9991,2 45589  53.0560  30.0452 0001585  86.3145 273.8025 15.06393953302895
STARLINK-1365,45590,53.0541,0.0001509,15.06393474,546.1865211449767,548.2765973761616,1 45590U 20025BM  25283.76093719 -.00000724  00000+0 -29737-4 0  9990,2 45590  53.0541  59.6724 0001509  78.8204 281.2955 15.06393474302504
STARLINK-1443,45660,53.0549,0.0001468,15.06403627,546.1838021915182,548.2170812644099,1 45660U 20035D   25283.67985941  .00005281  00000+0  37314-3 0  9996,2 45660  53.0549  20.0400 0001468  73.1634 286.9516 15.06403627296129
STARLINK-1446,45663,53.0286,0.0002783,15.31051391,470.7675667026624,474.58072818733035,1 45663U 20035G   25283.45305525  .00040448  00000+0  13346-2 0  9991,2 45663  53.0286 347.8633 0002783 200.6067 159.4821 15.31051391296551
STARLINK-1448,45665,53.0549,0.0001576,15.06386735,546.1607722110484,548.3436548911595,1 45665U 20035J   25283.68353272  .00001713  00000+0  13390-3 0  9992,2 45665  53.0549  20.0200 0001576  96.6117 263.5052 15.06386735296113
STARLINK-1451,45668,53.0568,0.0001337,15.06393701,546.3049418499731,548.1567852166809,1 45668U 20035M   25283.62090498 -.00003461  00000+0 -21358-3 0  9994,2 45668  53.0568  20.6202 0001337  85.6252 274.4890 15.06393701296110
STARLINK-1452,45669,53.0395,0.0008137,15.24343167,487.16763743576485,498.3493327482038,1 45669U 20035N   25283.52648399  .00024408  00000+0  99419-3 0  9998,2 45669  53.0395   4.8177 0008137 298.5762  61.4416 15.24343167296322
STARLINK-1453,45670,53.0539,0.0001347,15.06389795,546.3099863062871,548.1756836338282,1 45670U 20035P   25283.56465938 -.00004908  00000+0 -31093-3 0  9999,2 45670  53.0539 350.5604 0001347  87.0643 273.0500 15.06389795296417
STARLINK-1454,45671,53.0557,0.0001256,15.06396089,546.3537193315215,548.093369900329,1 45671U 20035Q   25283.51029076 -.00002334  00000+0 -13785-3 0  9993,2 45671  53.0557  20.8029 0001256  89.7843 270.3290 15.06396089296089
STARLINK-1456,45673,53.0546,0.0001711,15.06390013,546.057234448549,548.4270991994354,1 45673U 20035S   25283.45870014  .00000869  00000+0  77265-4 0  9997,2 45673  53.0546  21.0339 0001711  86.9856 273.1328 15.06390013296090
STARLINK-1457,45674,53.0558,0.0001387,15.06398452,546.2557558363533,548.1768488424214,1 45674U 20035T   25283.59876058  .00001889  00000+0  14565-3 0  9993,2 45674  53.0558  20.4008 0001387  90.7031 269.4116 15.06398452296084
STARLINK-1458,45675,53.0563,0.0001428,15.06396686,546.2327736651077,548.2106561140808,1 45675U 20035U   25283.65403940 -.00001918  00000+0 -10989-3 0  9998,2 45675  53.0563  20.1597 0001428  63.4969 296.6166 15.06396686296088
STARLINK-1460,45676,53.0575,0.0001103,15.06394314,546.465116896039,547.9928526322783,1 45676U 20035V   25283.49185723 -.00005569  00000+0 -35536-3 0  9998,2 45676  53.0575  20.8790 0001103  94.9791 265.1324 15.06394314296056
STARLINK-1392,45677,53.0564,0.0001331,15.06391632,546.3154374651322,548.1589720784423,1 45677U 20035W   25283.63561037 -.00001211  00000+0 -62435-4 0  9990,2 45677  53.0564  20.2372 0001331  91.8848 268.2294 15.06391632296114
STARLINK-1394,45679,53.0546,0.00013,15.06431769,546.2139095850089,548.0144748949915,1 45679U 20035Y   25283.63285725  .00013414  00000+0  91695-3 0  9994,2 45679  53.0546  10.2500 0001300  85.2034 274.9103 15.06431769296252
STARLINK-1402,45685,53.0563,0.0001659,15.06432155,545.9641102708929,548.2619082239626,1 45685U 20035AE  25283.53091777  .00026772  00000+0  18078-2 0  9996,2 45685  53.0563   5.1286 0001659  83.9469 276.1709 15.06432155296320
STARLINK-1404,45686,53.0531,0.0001461,15.06388873,546.2338623938695,548.2574592073552,1 45686U 20035AF  25283.52595957 -.00002714  00000+0 -16343-3 0  9991,2 45686  53.0531  10.7294 0001461  95.7967 264.3189 15.06388873296241
STARLINK-1413,45689,53.0558,0.0001339,15.0639128,546.3109758608125,548.1655913617642,1 45689U 20035AJ  25283.47803382 -.00006840  00000+0 -44083-3 0  9998,2 45689  53.0558  10.9414 0001339  85.3952 274.7190 15.06391280296144
STARLINK-1417,45693,53.0577,0.0001429,15.06385722,546.2656797352265,548.2449568597949,1 45693U 20035AN  25283.73974998  .00001347  00000+0  10933-3 0  9996,2 45693  53.0577   9.7690 0001429 119.2795 240.8337 15.06385722296268
STARLINK-1420,45695,53.055,0.0001349,15.06402212,546.2705498792411,548.1390070910766,1 45695U 20035AQ  25283.47524481 -.00001461  00000+0 -79229-4 0  9990,2 45695  53.0550 350.9486 0001349  93.4639 266.6504 15.06402212296510
STARLINK-1422,45696,53.0548,0.000129,15.06396432,546.3291219913308,548.11586474062,1 45696U 20035AR  25283.48541792  .00000913  00000+0  80169-4 0  9990,2 45696  53.0548  10.9150 0001290  73.0603 287.0527 15.06396432296225
STARLINK-1351,45697,53.0542,0.0001324,15.06401674,546.2895119043442,548.1233428439136,1 45697U 20035AS  25283.59416147  .00004357  00000+0  31122-3 0  9998,2 45697  53.0542 350.4252 0001324  70.9954 289.1178 15.06401674296532
STARLINK-1398,45699,53.0509,0.0001152,15.45580457,428.8887882182207,430.45730765326516,1 45699U 20035AU  25283.79418802  .00092684  00000+0  18828-2 0  9999,2 45699  53.0509 315.3421 0001152 277.7219  82.3656 15.45580457297046
STARLINK-1400,45700,53.0541,0.0001424,15.06398038,546.2314007012865,548.2037416831627,1 45700U 20035AV  25283.56835481 -.00000281  00000+0  63508-7 0  9996,2 45700  53.0541 350.5440 0001424  85.7522 274.3630 15.06398038296529
STARLINK-1403,45701,53.0567,0.0001381,15.06420589,546.1920744158278,548.1048382588679,1 45701U 20035AW  25283.59781647  .00003668  00000+0  26489-3 0  9998,2 45701  53.0567 350.4065 0001381 102.0570 258.0573 15.06420589296520
